CCSDS_OMM_VERS = 2.0
CREATION_DATE  = 
ORIGINATOR     = 

OBJECT_NAME    = HULIANWANG DIGUI-134
OBJECT_ID      = 2025-311G
CENTER_NAME    = EARTH
REF_FRAME      = TEME
TIME_SYSTEM    = UTC
MEAN_ELEMENT_THEORY = SGP/SGP4

EPOCH          = 2026-01-14T08:16:19.001568
MEAN_MOTION    = 13.90195304
ECCENTRICITY   = .00066997
INCLINATION    = 50.0054
RA_OF_ASC_NODE = 318.5928
ARG_OF_PERICENTER = 328.2968
MEAN_ANOMALY   = 31.7527

EPHEMERIS_TYPE = 0
CLASSIFICATION_TYPE = U
NORAD_CAT_ID   = 67242
ELEMENT_SET_NO = 999
REV_AT_EPOCH   = 270
BSTAR          = .90742155E-4
MEAN_MOTION_DOT = -.33E-6
MEAN_MOTION_DDOT = 0

CCSDS_OMM_VERS = 2.0
CREATION_DATE  = 
ORIGINATOR     = 

OBJECT_NAME    = HULIANWANG DIGUI-135
OBJECT_ID      = 2025-311H
CENTER_NAME    = EARTH
REF_FRAME      = TEME
TIME_SYSTEM    = UTC
MEAN_ELEMENT_THEORY = SGP/SGP4

EPOCH          = 2026-01-14T15:13:22.331136
MEAN_MOTION    = 13.90184318
ECCENTRICITY   = .00079198
INCLINATION    = 50.0040
RA_OF_ASC_NODE = 317.4554
ARG_OF_PERICENTER = 331.7493
MEAN_ANOMALY   = 28.2975

EPHEMERIS_TYPE = 0
CLASSIFICATION_TYPE = U
NORAD_CAT_ID   = 67243
ELEMENT_SET_NO = 999
REV_AT_EPOCH   = 274
BSTAR          = .76861965E-4
MEAN_MOTION_DOT = -.51E-6
MEAN_MOTION_DDOT = 0

CCSDS_OMM_VERS = 2.0
CREATION_DATE  = 
ORIGINATOR     = 

OBJECT_NAME    = HULIANWANG DIGUI-136
OBJECT_ID      = 2025-311J
CENTER_NAME    = EARTH
REF_FRAME      = TEME
TIME_SYSTEM    = UTC
MEAN_ELEMENT_THEORY = SGP/SGP4

EPOCH          = 2026-01-14T08:13:07.328352
MEAN_MOTION    = 13.90230169
ECCENTRICITY   = .00068403
INCLINATION    = 50.0112
RA_OF_ASC_NODE = 318.5957
ARG_OF_PERICENTER = 337.0758
MEAN_ANOMALY   = 22.9835

EPHEMERIS_TYPE = 0
CLASSIFICATION_TYPE = U
NORAD_CAT_ID   = 67244
ELEMENT_SET_NO = 999
REV_AT_EPOCH   = 270
BSTAR          = .85710549E-4
MEAN_MOTION_DOT = -.4E-6
MEAN_MOTION_DDOT = 0

CCSDS_OMM_VERS = 2.0
CREATION_DATE  = 
ORIGINATOR     = 

OBJECT_NAME    = CZ-8A R/B
OBJECT_ID      = 2025-311K
CENTER_NAME    = EARTH
REF_FRAME      = TEME
TIME_SYSTEM    = UTC
MEAN_ELEMENT_THEORY = SGP/SGP4

EPOCH          = 2026-01-14T14:49:24.267936
MEAN_MOTION    = 14.12609007
ECCENTRICITY   = .00889497
INCLINATION    = 50.0054
RA_OF_ASC_NODE = 314.6992
ARG_OF_PERICENTER = 149.8799
MEAN_ANOMALY   = 210.7266

EPHEMERIS_TYPE = 0
CLASSIFICATION_TYPE = U
NORAD_CAT_ID   = 67245
ELEMENT_SET_NO = 999
REV_AT_EPOCH   = 278
BSTAR          = -.12953801E-4
MEAN_MOTION_DOT = -.18E-5
MEAN_MOTION_DDOT = 0

CCSDS_OMM_VERS = 2.0
CREATION_DATE  = 
ORIGINATOR     = 

OBJECT_NAME    = FENGYUN 4C
OBJECT_ID      = 2025-312A
CENTER_NAME    = EARTH
REF_FRAME      = TEME
TIME_SYSTEM    = UTC
MEAN_ELEMENT_THEORY = SGP/SGP4

EPOCH          = 2026-01-14T09:37:00.746112
MEAN_MOTION    = 1.00270870
ECCENTRICITY   = .00025255
INCLINATION    = 0.0764
RA_OF_ASC_NODE = 241.4707
ARG_OF_PERICENTER = 48.3090
MEAN_ANOMALY   = 101.4159

EPHEMERIS_TYPE = 0
CLASSIFICATION_TYPE = U
NORAD_CAT_ID   = 67246
ELEMENT_SET_NO = 999
REV_AT_EPOCH   = 23
BSTAR          = 0
MEAN_MOTION_DOT = -.303E-5
MEAN_MOTION_DDOT = 0

CCSDS_OMM_VERS = 2.0
CREATION_DATE  = 
ORIGINATOR     = 

OBJECT_NAME    = CZ-3B R/B
OBJECT_ID      = 2025-312B
CENTER_NAME    = EARTH
REF_FRAME      = TEME
TIME_SYSTEM    = UTC
MEAN_ELEMENT_THEORY = SGP/SGP4

EPOCH          = 2026-01-13T07:12:36.188640
MEAN_MOTION    = 2.43501412
ECCENTRICITY   = .720982
INCLINATION    = 28.4106
RA_OF_ASC_NODE = 327.3433
ARG_OF_PERICENTER = 190.3323
MEAN_ANOMALY   = 137.2956

EPHEMERIS_TYPE = 0
CLASSIFICATION_TYPE = U
NORAD_CAT_ID   = 67247
ELEMENT_SET_NO = 999
REV_AT_EPOCH   = 42
BSTAR          = .51307E-3
MEAN_MOTION_DOT = .172942E-2
MEAN_MOTION_DDOT = -.31868E-6

CCSDS_OMM_VERS = 2.0
CREATION_DATE  = 
ORIGINATOR     = 

OBJECT_NAME    = 2025-313A
OBJECT_ID      = 2025-313A
CENTER_NAME    = EARTH
REF_FRAME      = TEME
TIME_SYSTEM    = UTC
MEAN_ELEMENT_THEORY = SGP/SGP4

EPOCH          = 2026-01-14T12:38:05.973792
MEAN_MOTION    = 14.66792130
ECCENTRICITY   = .02805464
INCLINATION    = 97.5633
RA_OF_ASC_NODE = 90.7436
ARG_OF_PERICENTER = 110.2619
MEAN_ANOMALY   = 252.8981

EPHEMERIS_TYPE = 0
CLASSIFICATION_TYPE = U
NORAD_CAT_ID   = 67248
ELEMENT_SET_NO = 999
REV_AT_EPOCH   = 249
BSTAR          = .1179444E-3
MEAN_MOTION_DOT = .1135E-4
MEAN_MOTION_DDOT = 0

CCSDS_OMM_VERS = 2.0
CREATION_DATE  = 
ORIGINATOR     = 

OBJECT_NAME    = 2025-313B
OBJECT_ID      = 2025-313B
CENTER_NAME    = EARTH
REF_FRAME      = TEME
TIME_SYSTEM    = UTC
MEAN_ELEMENT_THEORY = SGP/SGP4

EPOCH          = 2026-01-14T12:32:00.944160
MEAN_MOTION    = 14.73190157
ECCENTRICITY   = .02977657
INCLINATION    = 97.5324
RA_OF_ASC_NODE = 90.8223
ARG_OF_PERICENTER = 114.5122
MEAN_ANOMALY   = 248.7442

EPHEMERIS_TYPE = 0
CLASSIFICATION_TYPE = U
NORAD_CAT_ID   = 67249
ELEMENT_SET_NO = 999
REV_AT_EPOCH   = 250
BSTAR          = .20288488E-3
MEAN_MOTION_DOT = .2616E-4
MEAN_MOTION_DDOT = 0

CCSDS_OMM_VERS = 2.0
CREATION_DATE  = 
ORIGINATOR     = 

OBJECT_NAME    = 2025-313C
OBJECT_ID      = 2025-313C
CENTER_NAME    = EARTH
REF_FRAME      = TEME
TIME_SYSTEM    = UTC
MEAN_ELEMENT_THEORY = SGP/SGP4

EPOCH          = 2026-01-14T12:42:29.107584
MEAN_MOTION    = 14.84662416
ECCENTRICITY   = .01629964
INCLINATION    = 97.6366
RA_OF_ASC_NODE = 91.3466
ARG_OF_PERICENTER = 124.5776
MEAN_ANOMALY   = 237.0941

EPHEMERIS_TYPE = 0
CLASSIFICATION_TYPE = U
NORAD_CAT_ID   = 67250
ELEMENT_SET_NO = 999
REV_AT_EPOCH   = 252
BSTAR          = .79378332E-3
MEAN_MOTION_DOT = .847E-4
MEAN_MOTION_DDOT = 0

CCSDS_OMM_VERS = 2.0
CREATION_DATE  = 
ORIGINATOR     = 

OBJECT_NAME    = 2025-313D
OBJECT_ID      = 2025-313D
CENTER_NAME    = EARTH
REF_FRAME      = TEME
TIME_SYSTEM    = UTC
MEAN_ELEMENT_THEORY = SGP/SGP4

EPOCH          = 2026-01-14T13:08:28.738176
MEAN_MOTION    = 14.88738812
ECCENTRICITY   = .01523844
INCLINATION    = 97.5880
RA_OF_ASC_NODE = 91.3525
ARG_OF_PERICENTER = 117.1114
MEAN_ANOMALY   = 244.5740

EPHEMERIS_TYPE = 0
CLASSIFICATION_TYPE = U
NORAD_CAT_ID   = 67251
ELEMENT_SET_NO = 999
REV_AT_EPOCH   = 253
BSTAR          = .18704446E-3
MEAN_MOTION_DOT = .2111E-4
MEAN_MOTION_DDOT = 0

CCSDS_OMM_VERS = 2.0
CREATION_DATE  = 
ORIGINATOR     = 

OBJECT_NAME    = ZORKIY-2M-VPE
OBJECT_ID      = 2025-313E
CENTER_NAME    = EARTH
REF_FRAME      = TEME
TIME_SYSTEM    = UTC
MEAN_ELEMENT_THEORY = SGP/SGP4

EPOCH          = 2026-01-14T12:19:14.715264
MEAN_MOTION    = 15.21636015
ECCENTRICITY   = .00110802
INCLINATION    = 97.4118
RA_OF_ASC_NODE = 91.7199
ARG_OF_PERICENTER = 158.5760
MEAN_ANOMALY   = 201.5942

EPHEMERIS_TYPE = 0
CLASSIFICATION_TYPE = U
NORAD_CAT_ID   = 67252
ELEMENT_SET_NO = 999
REV_AT_EPOCH   = 258
BSTAR          = .21827828E-3
MEAN_MOTION_DOT = .4869E-4
MEAN_MOTION_DDOT = 0

CCSDS_OMM_VERS = 2.0
CREATION_DATE  = 
ORIGINATOR     = 

OBJECT_NAME    = AIST-2T 1
OBJECT_ID      = 2025-313F
CENTER_NAME    = EARTH
REF_FRAME      = TEME
TIME_SYSTEM    = UTC
MEAN_ELEMENT_THEORY = SGP/SGP4

EPOCH          = 2026-01-14T15:05:35.925792
MEAN_MOTION    = 15.65069269
ECCENTRICITY   = .00104315
INCLINATION    = 97.1038
RA_OF_ASC_NODE = 91.9556
ARG_OF_PERICENTER = 176.6825
MEAN_ANOMALY   = 183.4506

EPHEMERIS_TYPE = 0
CLASSIFICATION_TYPE = U
NORAD_CAT_ID   = 67253
ELEMENT_SET_NO = 999
REV_AT_EPOCH   = 265
BSTAR          = .35610886E-3
MEAN_MOTION_DOT = .3508E-3
MEAN_MOTION_DDOT = 0

