HULIANWANG DIGUI-134    
1 67242U 25311G   26014.34466437 -.00000033  00000+0  90742-4 0  9995
2 67242  50.0054 318.5928 0006699 328.2968  31.7527 13.90195304  2700
HULIANWANG DIGUI-135    
1 67243U 25311H   26014.63428624 -.00000051  00000+0  76862-4 0  9991
2 67243  50.0040 317.4554 0007919 331.7493  28.2975 13.90184318  2742
HULIANWANG DIGUI-136    
1 67244U 25311J   26014.34244593 -.00000040  00000+0  85711-4 0  9992
2 67244  50.0112 318.5957 0006840 337.0758  22.9835 13.90230169  2705
CZ-8A R/B               
1 67245U 25311K   26014.61764199 -.00000180  00000+0 -12954-4 0  9997
2 67245  50.0054 314.6992 0088949 149.8799 210.7266 14.12609007  2780
FENGYUN 4C              
1 67246U 25312A   26014.40070308 -.00000303  00000+0  00000+0 0  9998
2 67246   0.0764 241.4707 0002525  48.3090 101.4159  1.00270870   238
CZ-3B R/B               
1 67247U 25312B   26013.30041885  .00172942 -31868-6  51307-3 0  9997
2 67247  28.4106 327.3433 7209820 190.3323 137.2956  2.43501412   424
2025-313A               
1 67248U 25313A   26014.52645803  .00001135  00000+0  11794-3 0  9991
2 67248  97.5633  90.7436 0280546 110.2619 252.8981 14.66792130  2495
2025-313B               
1 67249U 25313B   26014.52223315  .00002616  00000+0  20288-3 0  9995
2 67249  97.5324  90.8223 0297765 114.5122 248.7442 14.73190157  2502
2025-313C               
1 67250U 25313C   26014.52950356  .00008470  00000+0  79378-3 0  9997
2 67250  97.6366  91.3466 0162996 124.5776 237.0941 14.84662416  2520
2025-313D               
1 67251U 25313D   26014.54755484  .00002111  00000+0  18704-3 0  9997
2 67251  97.5880  91.3525 0152384 117.1114 244.5740 14.88738812  2530
ZORKIY-2M-VPE           
1 67252U 25313E   26014.51336476  .00004869  00000+0  21828-3 0  9994
2 67252  97.4118  91.7199 0011080 158.5760 201.5942 15.21636015  2580
AIST-2T 1               
1 67253U 25313F   26014.62888803  .00035080  00000+0  35611-3 0  9997
2 67253  97.1038  91.9556 0010431 176.6825 183.4506 15.65069269  2651
